OBJECT_NAME,OBJECT_ID,EPOCH,MEAN_MOTION,ECCENTRICITY,INCLINATION,RA_OF_ASC_NODE,ARG_OF_PERICENTER,MEAN_ANOMALY,EPHEMERIS_TYPE,CLASSIFICATION_TYPE,NORAD_CAT_ID,ELEMENT_SET_NO,REV_AT_EPOCH,BSTAR,MEAN_MOTION_DOT,MEAN_MOTION_DDOT
IRIDIUM 154,2018-061F,2026-06-22T09:28:02.455104,14.34217318,.00021523,86.3959,54.6296,88.8862,271.2581,0,U,43574,999,41415,.15436421E-4,.63E-6,0
IRIDIUM 163,2018-061G,2026-06-22T09:00:38.448000,14.34217124,.00022193,86.3956,54.5527,83.2828,276.8621,0,U,43575,999,41412,.13914201E-4,.59E-6,0
IRIDIUM 156,2018-061H,2026-06-22T10:04:34.979520,14.34216982,.00020292,86.3957,54.5414,84.0962,276.0465,0,U,43576,999,41412,.52701648E-4,.167E-5,0
IRIDIUM 164,2018-061J,2026-06-22T09:37:10.517088,14.34217402,.00022014,86.3957,54.5898,89.8282,270.3166,0,U,43577,999,41416,.7603101E-5,.41E-6,0
IRIDIUM 159,2018-061K,2026-06-22T13:52:54.476256,14.34217711,.00022658,86.3956,54.4522,83.7769,276.3685,0,U,43578,999,41415,-.2757078E-5,.12E-6,0
IRIDIUM 180,2019-002A,2026-06-22T10:31:14.904480,14.34217887,.00022528,86.3973,351.4018,89.5631,270.5823,0,U,43922,999,38974,.24822245E-4,.89E-6,0
IRIDIUM 176,2019-002B,2026-06-22T17:34:23.888352,14.72272955,.00023779,86.6094,351.2214,93.9709,266.1780,0,U,43923,999,40006,.84927686E-4,.56E-5,0
IRIDIUM 168,2019-002C,2026-06-22T10:22:06.167712,14.34215779,.00022433,86.3971,351.4817,90.5709,269.5744,0,U,43924,999,38972,.56455265E-4,.178E-5,0
IRIDIUM 173,2019-002D,2026-06-22T11:44:18.950208,14.34218000,.0002186,86.3970,351.3464,88.1798,271.9648,0,U,43925,999,38971,.38259033E-4,.127E-5,0
IRIDIUM 169,2019-002E,2026-06-22T01:14:17.096064,14.38610811,.00017145,86.4222,23.1592,76.7643,283.3746,0,U,43926,999,39092,.58710941E-4,.2E-5,0
IRIDIUM 172,2019-002F,2026-06-22T11:35:10.642848,14.34217350,.00022528,86.3970,351.3571,89.8756,270.2698,0,U,43927,999,38972,.56279741E-4,.177E-5,0
IRIDIUM 175,2019-002G,2026-06-22T14:42:50.632128,14.43615161,.00032151,86.4515,288.2526,163.9674,196.1630,0,U,43928,999,39976,.64401156E-4,.238E-5,0
IRIDIUM 171,2019-002H,2026-06-22T17:49:38.884224,14.34217947,.00020696,86.3981,351.5551,92.5761,267.5672,0,U,43929,999,38975,.15874564E-4,.64E-6,0
IRIDIUM 170,2019-002J,2026-06-22T17:43:17.717664,14.72273383,.00023668,86.6093,351.2212,90.2574,269.8915,0,U,43930,999,40007,.83806703E-4,.553E-5,0
IRIDIUM 167,2019-002K,2026-06-22T17:40:30.877536,14.34217840,.00019423,86.3973,351.2735,95.5794,264.5623,0,U,43931,999,38975,.12338132E-4,.54E-6,0
IRIDIUM 181,2023-068S,2026-06-22T09:00:42.385248,14.43308586,.00024101,86.4495,54.6218,88.5683,271.5794,0,U,56726,999,16318,.46272708E-4,.176E-5,0
IRIDIUM 177,2023-068T,2026-06-22T15:54:52.120800,14.80233128,.00023391,86.1967,326.1901,88.7942,271.3547,0,U,56727,999,16717,.9893056E-4,.778E-5,0
IRIDIUM 174,2023-068U,2026-06-22T10:54:03.616992,14.72269781,.00024217,86.6100,351.4880,84.7984,275.3509,0,U,56728,999,16679,.90787909E-4,.597E-5,0
IRIDIUM 178,2023-068V,2026-06-22T07:32:28.125024,14.80240853,.00025944,86.6535,23.2170,85.0138,275.1380,0,U,56729,999,16712,.8958426E-4,.707E-5,0
IRIDIUM 179,2023-068W,2026-06-22T13:54:05.565312,14.80238244,.00024634,86.6771,32.1020,88.1406,272.0097,0,U,56730,999,16716,.81893056E-4,.649E-5,0
