IRIDIUM 154             
1 43574U 18061F   26173.39447286  .00000063  00000+0  15436-4 0  9992
2 43574  86.3959  54.6296 0002152  88.8862 271.2581 14.34217318414152
IRIDIUM 163             
1 43575U 18061G   26173.37544500  .00000059  00000+0  13914-4 0  9992
2 43575  86.3956  54.5527 0002219  83.2828 276.8621 14.34217124414129
IRIDIUM 156             
1 43576U 18061H   26173.41984930  .00000167  00000+0  52702-4 0  9991
2 43576  86.3957  54.5414 0002029  84.0962 276.0465 14.34216982414122
IRIDIUM 164             
1 43577U 18061J   26173.40081617  .00000041  00000+0  76031-5 0  9994
2 43577  86.3957  54.5898 0002201  89.8282 270.3166 14.34217402414166
IRIDIUM 159             
1 43578U 18061K   26173.57840829  .00000012  00000+0 -27571-5 0  9995
2 43578  86.3956  54.4522 0002265  83.7769 276.3685 14.34217711414156
IRIDIUM 180             
1 43922U 19002A   26173.43836695  .00000089  00000+0  24822-4 0  9993
2 43922  86.3973 351.4018 0002252  89.5631 270.5823 14.34217887389746
IRIDIUM 176             
1 43923U 19002B   26173.73222093  .00000560  00000+0  84928-4 0  9995
2 43923  86.6094 351.2214 0002377  93.9709 266.1780 14.72272955400064
IRIDIUM 168             
1 43924U 19002C   26173.43201583  .00000178  00000+0  56455-4 0  9993
2 43924  86.3971 351.4817 0002243  90.5709 269.5744 14.34215779389727
IRIDIUM 173             
1 43925U 19002D   26173.48910822  .00000127  00000+0  38259-4 0  9998
2 43925  86.3970 351.3464 0002186  88.1798 271.9648 14.34218000389710
IRIDIUM 169             
1 43926U 19002E   26173.05158676  .00000200  00000+0  58711-4 0  9990
2 43926  86.4222  23.1592 0001714  76.7643 283.3746 14.38610811390927
IRIDIUM 172             
1 43927U 19002F   26173.48276207  .00000177  00000+0  56280-4 0  9991
2 43927  86.3970 351.3571 0002252  89.8756 270.2698 14.34217350389722
IRIDIUM 175             
1 43928U 19002G   26173.61308602  .00000238  00000+0  64401-4 0  9994
2 43928  86.4515 288.2526 0003215 163.9674 196.1630 14.43615161399769
IRIDIUM 171             
1 43929U 19002H   26173.74281116  .00000064  00000+0  15875-4 0  9997
2 43929  86.3981 351.5551 0002069  92.5761 267.5672 14.34217947389755
IRIDIUM 170             
1 43930U 19002J   26173.73839951  .00000553  00000+0  83807-4 0  9997
2 43930  86.6093 351.2212 0002366  90.2574 269.8915 14.72273383400074
IRIDIUM 167             
1 43931U 19002K   26173.73646849  .00000054  00000+0  12338-4 0  9997
2 43931  86.3973 351.2735 0001942  95.5794 264.5623 14.34217840389753
IRIDIUM 181             
1 56726U 23068S   26173.37549057  .00000176  00000+0  46273-4 0  9993
2 56726  86.4495  54.6218 0002410  88.5683 271.5794 14.43308586163181
IRIDIUM 177             
1 56727U 23068T   26173.66310325  .00000778  00000+0  98931-4 0  9996
2 56727  86.1967 326.1901 0002339  88.7942 271.3547 14.80233128167176
IRIDIUM 174             
1 56728U 23068U   26173.45420853  .00000597  00000+0  90788-4 0  9993
2 56728  86.6100 351.4880 0002421  84.7984 275.3509 14.72269781166796
IRIDIUM 178             
1 56729U 23068V   26173.31421441  .00000707  00000+0  89584-4 0  9998
2 56729  86.6535  23.2170 0002594  85.0138 275.1380 14.80240853167122
IRIDIUM 179             
1 56730U 23068W   26173.57923108  .00000649  00000+0  81893-4 0  9995
2 56730  86.6771  32.1020 0002463  88.1406 272.0097 14.80238244167162
